[{"OBJECT_ID":"2008-011DK","OBJECT_NAME":"BREEZE-M DEB","NORAD_CAT_ID":"39599","OBJECT_TYPE":"DEBRIS","PERIOD":"457.621","INCLINATION":"49.3810","ECCENTRICITY":"0.63214760","MEAN_MOTION":"3.14670967","TLE_LINE1":"1 39599U 08011DK  21270.96079026 -.00000286  00000-0 -11413-1 0  9995","TLE_LINE2":"2 39599  49.3810 239.3452 6321476  33.3886 353.8796  3.14670967 90317"},{"OBJECT_ID":"2010-057X","OBJECT_NAME":"CZ-3C DEB","NORAD_CAT_ID":"39600","OBJECT_TYPE":"DEBRIS","PERIOD":"641.266","INCLINATION":"19.9224","ECCENTRICITY":"0.72233220","MEAN_MOTION":"2.24555700","TLE_LINE1":"1 39600U 10057X   21271.07052281 -.00000017  00000-0  56223-3 0  9999","TLE_LINE2":"2 39600  19.9224 251.7190 7223322 323.5385   4.1622  2.24555700 64456"},{"OBJECT_ID":"2014-011D","OBJECT_NAME":"ARIANE 5 DEB (SYLDA)","NORAD_CAT_ID":"39619","OBJECT_TYPE":"DEBRIS","PERIOD":"359.152","INCLINATION":"2.6248","ECCENTRICITY":"0.60301840","MEAN_MOTION":"4.00944787","TLE_LINE1":"1 39619U 14011D   21271.52609928  .00033108  00000-0  50758-2 0  9991","TLE_LINE2":"2 39619   2.6248 241.3857 6030184   4.2885 359.0922  4.00944787 94063"},{"OBJECT_ID":"1976-004E","OBJECT_NAME":"CTS DEB (ARRAY COVER)","NORAD_CAT_ID":"39688","OBJECT_TYPE":"DEBRIS","PERIOD":"1435.730","INCLINATION":"7.6317","ECCENTRICITY":"0.00348420","MEAN_MOTION":"1.00297436","TLE_LINE1":"1 39688U 76004E   21268.09555667 -.00000218  00000-0  00000-0 0  9995","TLE_LINE2":"2 39688   7.6317 292.4427 0034842 175.8201 205.2157  1.00297436 25477"},{"OBJECT_ID":"1976-004F","OBJECT_NAME":"CTS DEB (ARRAY COVER)","NORAD_CAT_ID":"39689","OBJECT_TYPE":"DEBRIS","PERIOD":"1436.752","INCLINATION":"7.6571","ECCENTRICITY":"0.01370200","MEAN_MOTION":"1.00226090","TLE_LINE1":"1 39689U 76004F   21271.08524638 -.00000147  00000-0  00000+0 0  9993","TLE_LINE2":"2 39689   7.6571 292.8106 0137020   3.4682 356.5286  1.00226090 49612"},{"OBJECT_ID":"1992-060G","OBJECT_NAME":"ARIANE 44LP DEB","NORAD_CAT_ID":"39705","OBJECT_TYPE":"DEBRIS","PERIOD":"679.912","INCLINATION":"8.4439","ECCENTRICITY":"0.71308160","MEAN_MOTION":"2.11792265","TLE_LINE1":"1 39705U 92060G   21267.23308889 -.00000115  00000-0  23952-3 0  9992","TLE_LINE2":"2 39705   8.4439 331.1953 7130816  36.7712 355.4008  2.11792265 57777"},{"OBJECT_ID":"1992-060H","OBJECT_NAME":"ARIANE 44LP DEB","NORAD_CAT_ID":"39706","OBJECT_TYPE":"DEBRIS","PERIOD":"666.573","INCLINATION":"7.8674","ECCENTRICITY":"0.70410310","MEAN_MOTION":"2.16030484","TLE_LINE1":"1 39706U 92060H   21267.43825758 -.00000160  00000-0  00000+0 0  9999","TLE_LINE2":"2 39706   7.8674  44.0707 7041031  96.8161 352.3270  2.16030484139292"},{"OBJECT_ID":"2014-023D","OBJECT_NAME":"BREEZE-M DEB (TANK)","NORAD_CAT_ID":"39730","OBJECT_TYPE":"DEBRIS","PERIOD":"586.882","INCLINATION":"47.1918","ECCENTRICITY":"0.71485880","MEAN_MOTION":"2.45364545","TLE_LINE1":"1 39730U 14023D   21271.39867693  .00006355  00000-0  13319-2 0  9994","TLE_LINE2":"2 39730  47.1918 212.6310 7148588  38.0534 355.2240  2.45364545 65306"},{"OBJECT_ID":"2008-046K","OBJECT_NAME":"SL-12 DEB","NORAD_CAT_ID":"39798","OBJECT_TYPE":"DEBRIS","PERIOD":"339.335","INCLINATION":"64.3167","ECCENTRICITY":"0.58020690","MEAN_MOTION":"4.24359418","TLE_LINE1":"1 39798U 08046K   21271.08153476  .00006382  00000-0  50481-2 0  9990","TLE_LINE2":"2 39798  64.3167 273.7644 5802069   2.2353 359.5336  4.24359418113361"},{"OBJECT_ID":"2008-046L","OBJECT_NAME":"SL-12 DEB","NORAD_CAT_ID":"39799","OBJECT_TYPE":"DEBRIS","PERIOD":"340.662","INCLINATION":"64.8366","ECCENTRICITY":"0.57618570","MEAN_MOTION":"4.22706689","TLE_LINE1":"1 39799U 08046L   21266.35049594  .00000638  00000-0  12795-2 0  9994","TLE_LINE2":"2 39799  64.8366 283.9036 5761857 341.2271   4.2140  4.22706689112865"},{"OBJECT_ID":"2008-046M","OBJECT_NAME":"SL-12 DEB","NORAD_CAT_ID":"39800","OBJECT_TYPE":"DEBRIS","PERIOD":"339.936","INCLINATION":"64.8660","ECCENTRICITY":"0.58216330","MEAN_MOTION":"4.23609143","TLE_LINE1":"1 39800U 08046M   21271.22567809  .00001055  00000-0  61926-3 0  9998","TLE_LINE2":"2 39800  64.8660 256.7133 5821633 336.2841   5.1651  4.23609143113470"},{"OBJECT_ID":"2008-046N","OBJECT_NAME":"SL-12 DEB","NORAD_CAT_ID":"39801","OBJECT_TYPE":"DEBRIS","PERIOD":"307.686","INCLINATION":"64.7592","ECCENTRICITY":"0.55808240","MEAN_MOTION":"4.68009082","TLE_LINE1":"1 39801U 08046N   21271.13888726  .00003296  00000-0  63274-3 0  9990","TLE_LINE2":"2 39801  64.7592 147.7402 5580824 330.3018   7.2928  4.68009082120223"},{"OBJECT_ID":"2008-011DM","OBJECT_NAME":"BREEZE-M DEB","NORAD_CAT_ID":"39988","OBJECT_TYPE":"DEBRIS","PERIOD":"502.740","INCLINATION":"49.2847","ECCENTRICITY":"0.57033930","MEAN_MOTION":"2.86430419","TLE_LINE1":"1 39988U 08011DM  21272.33783220 -.00000136  00000-0  00000+0 0  9999","TLE_LINE2":"2 39988  49.2847  30.1928 5703393 339.9999   4.5478  2.86430419107112"},{"OBJECT_ID":"2008-011DN","OBJECT_NAME":"BREEZE-M DEB","NORAD_CAT_ID":"39989","OBJECT_TYPE":"DEBRIS","PERIOD":"418.561","INCLINATION":"47.1657","ECCENTRICITY":"0.58908150","MEAN_MOTION":"3.44035655","TLE_LINE1":"1 39989U 08011DN  21272.13390422  .00006406  00000-0  74540+0 0  9991","TLE_LINE2":"2 39989  47.1657 185.8272 5890815 144.6096 274.6830  3.44035655120883"},{"OBJECT_ID":"2008-011DT","OBJECT_NAME":"BREEZE-M DEB","NORAD_CAT_ID":"39994","OBJECT_TYPE":"DEBRIS","PERIOD":"467.585","INCLINATION":"48.6930","ECCENTRICITY":"0.64750010","MEAN_MOTION":"3.07965290","TLE_LINE1":"1 39994U 08011DT  21267.09783375 -.00000036  00000-0 -10932-2 0  9992","TLE_LINE2":"2 39994  48.6930 215.0776 6475001  88.1933   1.2133  3.07965290 70951"},{"OBJECT_ID":"2008-011DU","OBJECT_NAME":"BREEZE-M DEB","NORAD_CAT_ID":"39995","OBJECT_TYPE":"DEBRIS","PERIOD":"466.717","INCLINATION":"49.0626","ECCENTRICITY":"0.64634760","MEAN_MOTION":"3.08537969","TLE_LINE1":"1 39995U 08011DU  21270.92434619  .00000583  00000-0  65454-2 0  9997","TLE_LINE2":"2 39995  49.0626 222.0485 6463476  59.7928   0.4220  3.08537969106929"},{"OBJECT_ID":"2002-040E","OBJECT_NAME":"MSG 1 DEB (COOLER COVER)","NORAD_CAT_ID":"39998","OBJECT_TYPE":"DEBRIS","PERIOD":"1423.178","INCLINATION":"10.9482","ECCENTRICITY":"0.00127710","MEAN_MOTION":"1.01182003","TLE_LINE1":"1 39998U 02040E   21272.05904167  .00000058  00000-0  00000+0 0  9992","TLE_LINE2":"2 39998  10.9482  25.7745 0012771 202.2019 154.9443  1.01182003 47207"},{"OBJECT_ID":"2002-040F","OBJECT_NAME":"MSG 1 DEB (BAFFLE COVER)","NORAD_CAT_ID":"39999","OBJECT_TYPE":"DEBRIS","PERIOD":"1412.184","INCLINATION":"10.7681","ECCENTRICITY":"0.00981020","MEAN_MOTION":"1.01969709","TLE_LINE1":"1 39999U 02040F   21260.38883130 -.00000170  00000-0  00000+0 0  9998","TLE_LINE2":"2 39999  10.7681  25.1390 0098102  80.9588 330.7395  1.01969709 39129"},{"OBJECT_ID":"2014-054D","OBJECT_NAME":"ARIANE 5 DEB (SYLDA)","NORAD_CAT_ID":"40149","OBJECT_TYPE":"DEBRIS","PERIOD":"352.796","INCLINATION":"6.0568","ECCENTRICITY":"0.59684250","MEAN_MOTION":"4.08167375","TLE_LINE1":"1 40149U 14054D   21272.21268056  .00018561  00000-0  41656-2 0  9991","TLE_LINE2":"2 40149   6.0568 173.5372 5968425  92.2149 332.8955  4.08167375 88001"},{"OBJECT_ID":"2007-003AP","OBJECT_NAME":"CZ-3A DEB","NORAD_CAT_ID":"40155","OBJECT_TYPE":"DEBRIS","PERIOD":"718.516","INCLINATION":"23.8149","ECCENTRICITY":"0.73977990","MEAN_MOTION":"2.00413111","TLE_LINE1":"1 40155U 07003AP  21260.20280653  .00001443  00000-0  18416-1 0  9995","TLE_LINE2":"2 40155  23.8149 205.6651 7397799  53.5679 353.7892  2.00413111  2018"},{"OBJECT_ID":"2007-003AQ","OBJECT_NAME":"CZ-3A DEB","NORAD_CAT_ID":"40156","OBJECT_TYPE":"DEBRIS","PERIOD":"780.974","INCLINATION":"27.0794","ECCENTRICITY":"0.75086730","MEAN_MOTION":"1.84385072","TLE_LINE1":"1 40156U 07003AQ  21271.50650939 -.00000157  00000-0 -19283-2 0  9996","TLE_LINE2":"2 40156  27.0794   7.7554 7508673  64.4546   2.6612  1.84385072 77199"},{"OBJECT_ID":"2010-042K","OBJECT_NAME":"CZ-3B DEB","NORAD_CAT_ID":"40158","OBJECT_TYPE":"DEBRIS","PERIOD":"762.998","INCLINATION":"26.0650","ECCENTRICITY":"0.73115080","MEAN_MOTION":"1.88729229","TLE_LINE1":"1 40158U 10042K   21267.36605049 -.00000201  00000-0  00000+0 0  9999","TLE_LINE2":"2 40158  26.0650 288.4111 7311508  76.4443 353.8234  1.88729229981494"},{"OBJECT_ID":"2010-042L","OBJECT_NAME":"CZ-3B DEB","NORAD_CAT_ID":"40159","OBJECT_TYPE":"DEBRIS","PERIOD":"639.727","INCLINATION":"27.0363","ECCENTRICITY":"0.72516190","MEAN_MOTION":"2.25096169","TLE_LINE1":"1 40159U 10042L   21267.89715886  .00002600  00000-0  57249-2 0  9993","TLE_LINE2":"2 40159  27.0363 293.5544 7251619 291.8874   9.1476  2.25096169 78859"},{"OBJECT_ID":"2010-042M","OBJECT_NAME":"CZ-3B DEB","NORAD_CAT_ID":"40160","OBJECT_TYPE":"DEBRIS","PERIOD":"758.444","INCLINATION":"27.2142","ECCENTRICITY":"0.72640240","MEAN_MOTION":"1.89862388","TLE_LINE1":"1 40160U 10042M   21269.63018983 -.00000207  00000-0  00000-0 0  9996","TLE_LINE2":"2 40160  27.2142 315.7961 7264024  15.7152  84.4831  1.89862388 54458"},{"OBJECT_ID":"2010-042N","OBJECT_NAME":"CZ-3B DEB","NORAD_CAT_ID":"40161","OBJECT_TYPE":"DEBRIS","PERIOD":"722.644","INCLINATION":"27.2671","ECCENTRICITY":"0.73939300","MEAN_MOTION":"1.99268151","TLE_LINE1":"1 40161U 10042N   21266.86446951 -.00001035  00000-0 -14190-2 0  9997","TLE_LINE2":"2 40161  27.2671 138.6178 7393930 279.6376 241.0107  1.99268151 73970"},{"OBJECT_ID":"2010-042P","OBJECT_NAME":"CZ-3B DEB","NORAD_CAT_ID":"40162","OBJECT_TYPE":"DEBRIS","PERIOD":"749.979","INCLINATION":"27.0029","ECCENTRICITY":"0.72191190","MEAN_MOTION":"1.92005443","TLE_LINE1":"1 40162U 10042P   21270.46287831 -.00000184  00000-0  00000-0 0  9995","TLE_LINE2":"2 40162  27.0029 315.3562 7219119  20.8170 357.7889  1.92005443 55081"},{"OBJECT_ID":"2010-042Q","OBJECT_NAME":"CZ-3B DEB","NORAD_CAT_ID":"40163","OBJECT_TYPE":"DEBRIS","PERIOD":"748.099","INCLINATION":"27.2714","ECCENTRICITY":"0.73305560","MEAN_MOTION":"1.92487777","TLE_LINE1":"1 40163U 10042Q   21270.55977094 -.00000300  00000-0 -74085-2 0  9990","TLE_LINE2":"2 40163  27.2714 212.8953 7330556 163.4808 359.9490  1.92487777 68182"}]